GLOBALSTAR M094         
1 39074U 13005C   24207.78017730 -.00000083  00000+0  11770-3 0  9990
2 39074  51.9960  95.9302 0000450  35.6597 324.4300 12.62266190531175
GLOBALSTAR M096         
1 39075U 13005D   24207.87263464 -.00000081  00000+0  12789-3 0  9997
2 39075  52.0062 143.9082 0000235 339.6466  20.4391 12.62267795530436
GLOBALSTAR M078         
1 39076U 13005E   24207.21283695 -.00000112  00000+0 -44025-4 0  9999
2 39076  51.9847 230.8737 0001130 165.2120 194.8780 12.62273426528831
GLOBALSTAR M095         
1 39077U 13005F   24207.23897965 -.00000105  00000+0 -79763-5 0  9993
2 39077  51.9773 228.1511 0000708 200.5283 159.5555 12.62262688528480
GLOBALSTAR M087         
1 52888U 22064A   24207.21738978 -.00000073  00000+0  10564-3 0  9994
2 52888  51.9762  75.7715 0010081  99.0463 261.1579 13.37579416102613
